norad_id,name,regime,epoch,line1,line2,inclination,eccentricity,mean_motion,raan,arg_pericenter,mean_anomaly
36395,SDO,IGO,18177.35306122,1 36395U 10005A   18177.35306122 -.00000066 +00000-0 +00000-0 0 0781\,2 36395 029.2242 133.7759 0001468 020.5965 145.3060 01.0027111803082,29.2242,0.0001468,1.00271118,133.7759,20.5965,145.306
36395,SDO,IGO,18178.37393045,1 36395U 10005A   18178.37393045 -.00000068 +00000-0 +00000-0 0 0782\,2 36395 029.2254 133.7586 0001437 021.1009 153.3325 01.0027113303083,29.2254,0.0001437,1.00271133,133.7586,21.1009,153.3325
36395,SDO,IGO,18178.62963806,1 36395U 10005A   18178.62963806 -.00000068 +00000-0 +00000-0 0 0001\,2 36395 029.2256 133.7543 0001429 021.3547 245.3885 01.0027113703086,29.2256,0.0001429,1.00271137,133.7543,21.3547,245.3885
36395,SDO,IGO,18179.37612269,1 36395U 10005A   18179.37612269 -.00000069 +00000-0 +00000-0 0 0783\,2 36395 029.2265 133.7417 0001412 021.9124 154.3096 01.0027112803084,29.2265,0.0001412,1.00271128,133.7417,21.9124,154.3096
36395,SDO,IGO,18180.37371392,1 36395U 10005A   18180.37371392 -.00000068 +00000-0 +00000-0 0 0001\,2 36395 029.2276 133.7249 0001391 022.9670 153.3825 01.0027110103088,29.2276,0.0001391,1.00271101,133.7249,22.967,153.3825
36395,SDO,IGO,18181.37691344,1 36395U 10005A   18181.37691344 -.00000067 +00000-0 +00000-0 0 0786\,2 36395 029.2288 133.7080 0001376 024.2901 154.2114 01.0027105303086,29.2288,0.0001376,1.00271053,133.708,24.2901,154.2114
36395,SDO,IGO,18182.36685023,1 36395U 10005A   18182.36685023 -.00000064 +00000-0 +00000-0 0 0001\,2 36395 029.2299 133.6913 0001369 025.8030 150.0625 01.0027098203090,29.2299,0.0001369,1.00270982,133.6913,25.803,150.0625
36395,SDO,IGO,18183.36739782,1 36395U 10005A   18183.36739782 -.00000060 +00000-0 +00000-0 0 0787\,2 36395 029.2310 133.6743 0001369 027.4423 149.6175 01.0027089003088,29.231,0.0001369,1.0027089,133.6743,27.4423,149.6175
36395,SDO,IGO,18184.44060025,1 36395U 10005A   18184.44060025 -.00000056 +00000-0 +00000-0 0 0788\,2 36395 029.2323 133.6562 0001382 029.0330 175.4488 01.0027076903089,29.2323,0.0001382,1.00270769,133.6562,29.033,175.4488
36395,SDO,IGO,18185.37391274,1 36395U 10005A   18185.37391274 -.00000053 +00000-0 +00000-0 0 0001\,2 36395 029.2334 133.6402 0001403 030.5535 150.8503 01.0027065003093,29.2334,0.0001403,1.0027065,133.6402,30.5535,150.8503
36395,SDO,IGO,18186.35515598,1 36395U 10005A   18186.35515598 -.00000051 +00000-0 +00000-0 0 0789\,2 36395 029.2345 133.6234 0001437 031.8502 143.7781 01.0027051403091,29.2345,0.0001437,1.00270514,133.6234,31.8502,143.7781
36395,SDO,IGO,18187.37477938,1 36395U 10005A   18187.37477938 -.00000050 +00000-0 +00000-0 0 0790\,2 36395 029.2358 133.6057 0001480 032.9049 150.8026 01.0027036403092,29.2358,0.000148,1.00270364,133.6057,32.9049,150.8026
36395,SDO,IGO,18188.39008306,1 36395U 10005A   18188.39008306 -.00000052 +00000-0 +00000-0 0 0791\,2 36395 029.2371 133.5879 0001537 033.9495 156.2774 01.0027020803093,29.2371,0.0001537,1.00270208,133.5879,33.9495,156.2774
36395,SDO,IGO,18189.35579135,1 36395U 10005A   18189.35579135 -.00000056 +00000-0 +00000-0 0 0001\,2 36395 029.2384 133.5708 0001594 034.7626 144.0795 01.0027005503097,29.2384,0.0001594,1.00270055,133.5708,34.7626,144.0795
36395,SDO,IGO,18190.36700236,1 36395U 10005A   18190.36700236 -.00000062  00000-0  00000+0 0  7927\,2 36395  29.2398 133.5529 0001651  35.2146 148.6685  1.00269890 30953,29.2398,0.0001651,1.0026989,133.5529,35.2146,148.6685
36395,SDO,IGO,18191.41442973,1 36395U 10005A   18191.41442973 -.00000070  00000-0  00000+0 0  7935\,2 36395  29.2413 133.5342 0001708  35.2232 166.7742  1.00269720 30961,29.2413,0.0001708,1.0026972,133.5342,35.2232,166.7742
36395,SDO,IGO,18192.37221277,1 36395U 10005A   18192.37221277 -.00000077 +00000-0 +00000-0 0 0001\,2 36395 029.2427 133.5171 0001758 034.7057 153.0445 01.0026957803100,29.2427,0.0001758,1.00269578,133.5171,34.7057,153.0445
36395,SDO,IGO,18193.36388101,1 36395U 10005A   18193.36388101 -.00000083  00000-0  00000+0 0  7948\,2 36395  29.2441 133.4993 0001812  33.8743 151.8607  1.00269451 30988,29.2441,0.0001812,1.00269451,133.4993,33.8743,151.8607
36395,SDO,IGO,18195.36796615,1 36395U 10005A   18195.36796615 -.00000089  00000-0  00000+0 0  7950\,2 36395  29.2470 133.4631 0001917  32.3571 156.8372  1.00269300 31009,29.247,0.0001917,1.002693,133.4631,32.3571,156.8372
36395,SDO,IGO,18195.57934743,1 36395U 10005A   18195.57934743 -.00000089 +00000-0 +00000-0 0 0001\,2 36395 029.2473 133.4593 0001928 032.5628 232.9383 01.0026928403103,29.2473,0.0001928,1.00269284,133.4593,32.5628,232.9383
36395,SDO,IGO,18196.34746512,1 36395U 10005A   18196.34746512 -.00000088 +00000-0 +00000-0 0 0001\,2 36395 029.2484 133.4455 0001965 032.2628 150.5225 01.0026928503104,29.2484,0.0001965,1.00269285,133.4455,32.2628,150.5225
36395,SDO,IGO,18197.36299564,1 36395U 10005A   18197.36299564 -.00000086  00000-0  00000+0 0  7961\,2 36395  29.2499 133.4273 0001983  32.0370 157.3467  1.00269314 31027,29.2499,0.0001983,1.00269314,133.4273,32.037,157.3467
36395,SDO,IGO,18198.31958875,1 36395U 10005A   18198.31958875 -.00000083 +00000-0 +00000-0 0 0001\,2 36395 029.2512 133.4104 0001978 031.7997 142.9064 01.0026937303106,29.2512,0.0001978,1.00269373,133.4104,31.7997,142.9064
36395,SDO,IGO,18198.33452315,1 36395U 10005A   18198.33452315 -.00000083  00000-0  00000+0 0  7983\,2 36395  29.2516 133.4103 0001891  45.7761 134.3114  1.00268618 31033,29.2516,0.0001891,1.00268618,133.4103,45.7761,134.3114
36395,SDO,IGO,18199.17127240,1 36395U 10005A   18199.17127240 -.00000081  00000-0  00000+0 0  7991\,2 36395  29.2524 133.3954 0001967  31.6534  90.5034  1.00269446 31046,29.2524,0.0001967,1.00269446,133.3954,31.6534,90.5034
36395,SDO,IGO,18199.56881957,1 36395U 10005A   18199.56881957 -.00000081 +00000-0 +00000-0 0 0001\,2 36395 029.2529 133.3884 0001935 030.8632 234.8051 01.0026950503107,29.2529,0.0001935,1.00269505,133.3884,30.8632,234.8051
36395,SDO,IGO,18199.91538858,1 36395U 10005A   18199.91538858 -.00000080 +00000-0 +00000-0 0 0001\,2 36395 029.2533 133.3823 0001927 030.4040 000.3730 01.0026953503108,29.2533,0.0001927,1.00269535,133.3823,30.404,0.373
36395,SDO,IGO,18200.33868672,1 36395U 10005A   18200.33868672 -.00000080 +00000-0 +00000-0 0 0001\,2 36395 029.2538 133.3749 0001914 030.5621 153.0218 01.0026955303108,29.2538,0.0001914,1.00269553,133.3749,30.5621,153.0218
36395,SDO,IGO,18201.34617748,1 36395U 10005A   18201.34617748 -.00000081  00000-0  00000+0 0  8015\,2 36395  29.2551 133.3575 0001589  17.3351 169.9473  1.00269397 31068,29.2551,0.0001589,1.00269397,133.3575,17.3351,169.9473
36395,SDO,IGO,18202.34771480,1 36395U 10005A   18202.34771480 -.00000082  00000-0  00000+0 0  8022\,2 36395  29.2562 133.3404 0001916  32.4253 156.3981  1.00269281 31071,29.2562,0.0001916,1.00269281,133.3404,32.4253,156.3981
36395,SDO,IGO,18203.31192962,1 36395U 10005A   18203.31192962 -.00000085 +00000-0 +00000-0 0 0001\,2 36395 029.2583 133.3234 0001953 037.2545 139.6427 01.0026962503111,29.2583,0.0001953,1.00269625,133.3234,37.2545,139.6427
36395,SDO,IGO,18204.34204796,1 36395U 10005A   18204.34204796 -.00000088 +00000-0 +00000-0 0 0803\,2 36395 029.2595 133.3057 0001815 034.0114 154.7535 01.0026985303109,29.2595,0.0001815,1.00269853,133.3057,34.0114,154.7535
36395,SDO,IGO,18205.33562046,1 36395U 10005A   18205.33562046 -.00000090 +00000-0 +00000-0 0 0001\,2 36395 029.2602 133.2888 0001735 032.7102 154.7283 01.0026993803113,29.2602,0.0001735,1.00269938,133.2888,32.7102,154.7283
36395,SDO,IGO,18206.30441694,1 36395U 10005A   18206.30441694 -.00000091 +00000-0 +00000-0 0 0804\,2 36395 029.2615 133.2724 0001882 040.4634 136.7010 01.0026982003111,29.2615,0.0001882,1.0026982,133.2724,40.4634,136.701
36395,SDO,IGO,18207.30952108,1 36395U 10005A   18207.30952108 -.00000091 +00000-0 +00000-0 0 0805\,2 36395 029.2626 133.2554 0002178 050.0190 129.9760 01.0026964903112,29.2626,0.0002178,1.00269649,133.2554,50.019,129.976
36395,SDO,IGO,18208.30605084,1 36395U 10005A   18208.30605084 -.00000089 +00000-0 +00000-0 0 0001\,2 36395 029.2637 133.2386 0002355 054.6726 125.0601 01.0026957103116,29.2637,0.0002355,1.00269571,133.2386,54.6726,125.0601
36395,SDO,IGO,18209.30342609,1 36395U 10005A   18209.30342609 -.00000086 +00000-0 +00000-0 0 0806\,2 36395 029.2648 133.2216 0002454 057.3536 122.4231 01.0026952303114,29.2648,0.0002454,1.00269523,133.2216,57.3536,122.4231
36395,SDO,IGO,18210.30604959,1 36395U 10005A   18210.30604959 -.00000082 +00000-0 +00000-0 0 0807\,2 36395 029.2658 133.2046 0002572 059.9243 121.7909 01.0026945303115,29.2658,0.0002572,1.00269453,133.2046,59.9243,121.7909
36395,SDO,IGO,18211.31346145,1 36395U 10005A   18211.31346145 -.00000078  00000-0  00000+0 0  8086\,2 36395  29.2669 133.1874 0002697  62.1577 123.2243  1.00269365 31161,29.2669,0.0002697,1.00269365,133.1874,62.1577,123.2243
36395,SDO,IGO,18212.30477491,1 36395U 10005A   18212.30477491 -.00000074 +00000-0 +00000-0 0 0001\,2 36395 029.2680 133.1705 0002864 064.4471 118.7896 01.0026925003120,29.268,0.0002864,1.0026925,133.1705,64.4471,118.7896
36395,SDO,IGO,18213.37303355,1 36395U 10005A   18213.37303355 -.00000071  00000-0  00000+0 0  8094\,2 36395  29.2687 133.1522 0001695  40.5543 168.3326  1.00269495 31189,29.2687,0.0001695,1.00269495,133.1522,40.5543,168.3326
36395,SDO,IGO,18213.54937278,1 36395U 10005A   18213.54937278 -.00000070 +00000-0 +00000-0 0 0001\,2 36395 029.2687 133.1492 0001660 038.4941 234.0505 01.0026947703121,29.2687,0.000166,1.00269477,133.1492,38.4941,234.0505
36395,SDO,IGO,18214.29841014,1 36395U 10005A   18214.29841014 -.00000069 +00000-0 +00000-0 0 0001\,2 36395 029.2695 133.1361 0001682 039.1816 143.7593 01.0026938603122,29.2695,0.0001682,1.00269386,133.1361,39.1816,143.7593
36395,SDO,IGO,18215.26823660,1 36395U 10005A   18215.26823660 -.00000070  00000-0  00000+0 0  8101\,2 36395  29.2707 133.1192 0001727  39.8899 133.1498  1.00269243 31200,29.2707,0.0001727,1.00269243,133.1192,39.8899,133.1498
